{"type": "FeatureCollection", "features": [ {"type": "Feature", "properties": {"norad_id": 37216, "name": "COSMO-SKYMED 4", "group": "resource", "lat": -80.07623714354199, "lon": -137.57495909008273, "alt_km": 630.8263511081614, "timestamp": "2025-12-14T18:52:55.155001+00:00", "meta": {"OBJECT_NAME": "COSMO-SKYMED 4", "OBJECT_ID": "2010-060A", "EPOCH": "2025-12-13T23:49:02.114976", "MEAN_MOTION": 14.82146784, "ECCENTRICITY": 0.00013757, "INCLINATION": 97.8809, "RA_OF_ASC_NODE": 169.2967, "ARG_OF_PERICENTER": 82.4386, "MEAN_ANOMALY": 277.6983, "EPHEMERIS_TYPE": 0, "CLASSIFICATION_TYPE": "U", "NORAD_CAT_ID": 37216, "ELEMENT_SET_NO": 999, "REV_AT_EPOCH": 81713, "BSTAR": 0.00012505804, "MEAN_MOTION_DOT": 9.43e-06, "MEAN_MOTION_DDOT": 0}, "tle": {"line1": "1 37216U 10060A   25347.99238559  .00000943  00000+0  12506-3 0  9999", "line2": "2 37216  97.8809 169.2967 0001375  82.4386 277.6983 14.82146784817136"}}, "geometry": {"type": "Point", "coordinates": [-137.57495909008273, -80.07623714354199]}}, {"type": "Feature", "properties": {"norad_id": 37387, "name": "RESOURCESAT-2", "group": "resource", "lat": 24.009769632211523, "lon": -123.71976286250785, "alt_km": 821.5052934934256, "timestamp": "2025-12-14T18:52:55.155011+00:00", "meta": {"OBJECT_NAME": "RESOURCESAT-2", "OBJECT_ID": "2011-015A", "EPOCH": "2025-12-13T23:34:18.903936", "MEAN_MOTION": 14.21597848, "ECCENTRICITY": 0.00063776, "INCLINATION": 98.7877, "RA_OF_ASC_NODE": 51.5284, "ARG_OF_PERICENTER": 39.4062, "MEAN_ANOMALY": 320.7578, "EPHEMERIS_TYPE": 0, "CLASSIFICATION_TYPE": "U", "NORAD_CAT_ID": 37387, "ELEMENT_SET_NO": 999, "REV_AT_EPOCH": 75986, "BSTAR": 0.00011993879, "MEAN_MOTION_DOT": 2.19e-06, "MEAN_MOTION_DDOT": 0}, "tle": {"line1": "1 37387U 11015A   25347.98216324  .00000219  00000+0  11994-3 0  9990", "line2": "2 37387  98.7877  51.5284 0006377  39.4062 320.7578 14.21597848759864"}}, "geometry": {"type": "Point", "coordinates": [-123.71976286250785, 24.009769632211523]}}, {"type": "Feature", "properties": {"norad_id": 37781, "name": "HAIYANG-2A", "group": "resource", "lat": -66.91813475661496, "lon": 146.97704349673253, "alt_km": 976.408330416527, "timestamp": "2025-12-14T18:52:55.155022+00:00", "meta": {"OBJECT_NAME": "HAIYANG-2A", "OBJECT_ID": "2011-043A", "EPOCH": "2025-12-14T00:15:50.526144", "MEAN_MOTION": 13.78834814, "ECCENTRICITY": 0.00016581, "INCLINATION": 99.3384, "RA_OF_ASC_NODE": 348.9259, "ARG_OF_PERICENTER": 81.7421, "MEAN_ANOMALY": 278.3918, "EPHEMERIS_TYPE": 0, "CLASSIFICATION_TYPE": "U", "NORAD_CAT_ID": 37781, "ELEMENT_SET_NO": 999, "REV_AT_EPOCH": 72116, "BSTAR": -1.2587349e-05, "MEAN_MOTION_DOT": -5.7e-07, "MEAN_MOTION_DDOT": 0}, "tle": {"line1": "1 37781U 11043A   25348.01100146 -.00000057  00000+0 -12587-4 0  9990", "line2": "2 37781  99.3384 348.9259 0001658  81.7421 278.3918 13.78834814721169"}}, "geometry": {"type": "Point", "coordinates": [146.97704349673253, -66.91813475661496]}}, {"type": "Feature", "properties": {"norad_id": 37791, "name": "RASAT", "group": "resource", "lat": -58.5658822213493, "lon": 91.42614737976741, "alt_km": 682.0953111573344, "timestamp": "2025-12-14T18:52:55.155033+00:00", "meta": {"OBJECT_NAME": "RASAT", "OBJECT_ID": "2011-044D", "EPOCH": "2025-12-14T00:18:10.698048", "MEAN_MOTION": 14.67913886, "ECCENTRICITY": 0.00218538, "INCLINATION": 98.0644, "RA_OF_ASC_NODE": 77.2509, "ARG_OF_PERICENTER": 61.2039, "MEAN_ANOMALY": 111.1585, "EPHEMERIS_TYPE": 0, "CLASSIFICATION_TYPE": "U", "NORAD_CAT_ID": 37791, "ELEMENT_SET_NO": 999, "REV_AT_EPOCH": 76601, "BSTAR": 0.00023277743, "MEAN_MOTION_DOT": 1.287e-05, "MEAN_MOTION_DDOT": 0}, "tle": {"line1": "1 37791U 11044D   25348.01262382  .00001287  00000+0  23278-3 0  9995", "line2": "2 37791  98.0644  77.2509 0021853  61.2039 111.1585 14.67913886766015"}}, "geometry": {"type": "Point", "coordinates": [91.42614737976741, -58.5658822213493]}}, {"type": "Feature", "properties": {"norad_id": 37841, "name": "SRMSAT", "group": "resource", "lat": 16.983742373217318, "lon": 152.81033683856202, "alt_km": 848.3650619433265, "timestamp": "2025-12-14T18:52:55.155043+00:00", "meta": {"OBJECT_NAME": "SRMSAT", "OBJECT_ID": "2011-058D", "EPOCH": "2025-12-13T15:35:14.637408", "MEAN_MOTION": 14.11511811, "ECCENTRICITY": 0.00117776, "INCLINATION": 19.9712, "RA_OF_ASC_NODE": 102.4443, "ARG_OF_PERICENTER": 323.4918, "MEAN_ANOMALY": 63.7335, "EPHEMERIS_TYPE": 0, "CLASSIFICATION_TYPE": "U", "NORAD_CAT_ID": 37841, "ELEMENT_SET_NO": 999, "REV_AT_EPOCH": 73157, "BSTAR": 0.0001231682, "MEAN_MOTION_DOT": 4.92e-06, "MEAN_MOTION_DDOT": 0}, "tle": {"line1": "1 37841U 11058D   25347.64947497  .00000492  00000+0  12317-3 0  9990", "line2": "2 37841  19.9712 102.4443 0011777 323.4918  63.7335 14.11511811731579"}}, "geometry": {"type": "Point", "coordinates": [152.81033683856202, 16.983742373217318]}}, {"type": "Feature", "properties": {"norad_id": 38012, "name": "PLEIADES 1A", "group": "resource", "lat": 26.713077415276448, "lon": 57.37126895305702, "alt_km": 696.1605745152219, "timestamp": "2025-12-14T18:52:55.155053+00:00", "meta": {"OBJECT_NAME": "PLEIADES 1A", "OBJECT_ID": "2011-076F", "EPOCH": "2025-12-14T01:11:52.056384", "MEAN_MOTION": 14.58564024, "ECCENTRICITY": 0.00012892, "INCLINATION": 98.1819, "RA_OF_ASC_NODE": 60.7979, "ARG_OF_PERICENTER": 74.6222, "MEAN_ANOMALY": 45.7628, "EPHEMERIS_TYPE": 0, "CLASSIFICATION_TYPE": "U", "NORAD_CAT_ID": 38012, "ELEMENT_SET_NO": 999, "REV_AT_EPOCH": 74500, "BSTAR": 0.00018395821, "MEAN_MOTION_DOT": 8.1e-06, "MEAN_MOTION_DDOT": 0}, "tle": {"line1": "1 38012U 11076F   25348.04990806  .00000810  00000+0  18396-3 0  9995", "line2": "2 38012  98.1819  60.7979 0001289  74.6222  45.7628 14.58564024745000"}}, "geometry": {"type": "Point", "coordinates": [57.37126895305702, 26.713077415276448]}}, {"type": "Feature", "properties": {"norad_id": 38038, "name": "ZIYUAN 1-02C (ZY 1-02C)", "group": "resource", "lat": 35.70893710963084, "lon": -119.11630963654449, "alt_km": 757.5111270938578, "timestamp": "2025-12-14T18:52:55.155064+00:00", "meta": {"OBJECT_NAME": "ZIYUAN 1-02C (ZY 1-02C)", "OBJECT_ID": "2011-079A", "EPOCH": "2025-12-14T00:24:31.080096", "MEAN_MOTION": 14.38014835, "ECCENTRICITY": 0.00072511, "INCLINATION": 98.433, "RA_OF_ASC_NODE": 54.0068, "ARG_OF_PERICENTER": 134.8458, "MEAN_ANOMALY": 346.443, "EPHEMERIS_TYPE": 0, "CLASSIFICATION_TYPE": "U", "NORAD_CAT_ID": 38038, "ELEMENT_SET_NO": 999, "REV_AT_EPOCH": 73259, "BSTAR": 0.00031704737, "MEAN_MOTION_DOT": 9.16e-06, "MEAN_MOTION_DDOT": 0}, "tle": {"line1": "1 38038U 11079A   25348.01702639  .00000916  00000+0  31705-3 0  9994", "line2": "2 38038  98.4330  54.0068 0007251 134.8458 346.4430 14.38014835732599"}}, "geometry": {"type": "Point", "coordinates": [-119.11630963654449, 35.70893710963084]}}, {"type": "Feature", "properties": {"norad_id": 38046, "name": "ZIYUAN 3-1 (ZY 3-1)", "group": "resource", "lat": -1.1246467895918555, "lon": -124.88927633230418, "alt_km": 366.3424205039728, "timestamp": "2025-12-14T18:52:55.155074+00:00", "meta": {"OBJECT_NAME": "ZIYUAN 3-1 (ZY 3-1)", "OBJECT_ID": "2012-001A", "EPOCH": "2025-12-13T23:44:36.049632", "MEAN_MOTION": 15.68809889, "ECCENTRICITY": 0.00016963, "INCLINATION": 97.1757, "RA_OF_ASC_NODE": 54.4358, "ARG_OF_PERICENTER": 343.6303, "MEAN_ANOMALY": 16.4904, "EPHEMERIS_TYPE": 0, "CLASSIFICATION_TYPE": "U", "NORAD_CAT_ID": 38046, "ELEMENT_SET_NO": 999, "REV_AT_EPOCH": 77516, "BSTAR": 0.00068189419, "MEAN_MOTION_DOT": 0.00078394, "MEAN_MOTION_DDOT": 0}, "tle": {"line1": "1 38046U 12001A   25347.98930613  .00078394  00000+0  68189-3 0  9990", "line2": "2 38046  97.1757  54.4358 0001696 343.6303  16.4904 15.68809889775164"}}, "geometry": {"type": "Point", "coordinates": [-124.88927633230418, -1.1246467895918555]}}, {"type": "Feature", "properties": {"norad_id": 38338, "name": "ARIRANG-3 (KOMPSAT-3)", "group": "resource", "lat": -51.5728172917958, "lon": -45.96324632928569, "alt_km": 691.1791985665877, "timestamp": "2025-12-14T18:52:55.155085+00:00", "meta": {"OBJECT_NAME": "ARIRANG-3 (KOMPSAT-3)", "OBJECT_ID": "2012-025B", "EPOCH": "2025-12-13T23:24:22.692096", "MEAN_MOTION": 14.61715038, "ECCENTRICITY": 0.00052789, "INCLINATION": 98.3323, "RA_OF_ASC_NODE": 302.5739, "ARG_OF_PERICENTER": 334.7601, "MEAN_ANOMALY": 25.3341, "EPHEMERIS_TYPE": 0, "CLASSIFICATION_TYPE": "U", "NORAD_CAT_ID": 38338, "ELEMENT_SET_NO": 999, "REV_AT_EPOCH": 72428, "BSTAR": 0.00018728773, "MEAN_MOTION_DOT": 8.85e-06, "MEAN_MOTION_DDOT": 0}, "tle": {"line1": "1 38338U 12025B   25347.97526264  .00000885  00000+0  18729-3 0  9997", "line2": "2 38338  98.3323 302.5739 0005278 334.7601  25.3341 14.61715038724287"}}, "geometry": {"type": "Point", "coordinates": [-45.96324632928569, -51.5728172917958]}}, {"type": "Feature", "properties": {"norad_id": 38709, "name": "EXACTVIEW-1 (ADS-1B)", "group": "resource", "lat": 34.30919419273163, "lon": 91.03650605303154, "alt_km": 801.2789149266446, "timestamp": "2025-12-14T18:52:55.155095+00:00", "meta": {"OBJECT_NAME": "EXACTVIEW-1 (ADS-1B)", "OBJECT_ID": "2012-039C", "EPOCH": "2025-12-13T22:29:46.932000", "MEAN_MOTION": 14.24908647, "ECCENTRICITY": 0.00106141, "INCLINATION": 98.9637, "RA_OF_ASC_NODE": 96.3526, "ARG_OF_PERICENTER": 350.7042, "MEAN_ANOMALY": 9.3939, "EPHEMERIS_TYPE": 0, "CLASSIFICATION_TYPE": "U", "NORAD_CAT_ID": 38709, "ELEMENT_SET_NO": 999, "REV_AT_EPOCH": 69632, "BSTAR": 0.00011213019, "MEAN_MOTION_DOT": 2.16e-06, "MEAN_MOTION_DDOT": 0}, "tle": {"line1": "1 38709U 12039C   25347.93734875  .00000216  00000+0  11213-3 0  9998", "line2": "2 38709  98.9637  96.3526 0010614 350.7042   9.3939 14.24908647696329"}}, "geometry": {"type": "Point", "coordinates": [91.03650605303154, 34.30919419273163]}}]}